start=new Date('2022-08-08T00:00:00.000Z').valueOf();
sats=[{"RCS_SIZE":"LARGE","SEMIMAJOR_AXIS":"6754.001","MEAN_MOTION_DOT":"-0.01052165","OBJECT_ID":"2022-084A","MEAN_MOTION_DDOT":"0.0000000000000","CLASSIFICATION_TYPE":"U","PERIAPSIS":"374.782","MEAN_ELEMENT_THEORY":"SGP4","EPOCH":"2022-08-07T22:00:00.999936","MEAN_ANOMALY":"263.7284","GP_ID":"209796711","ECCENTRICITY":"0.00016050","TLE_LINE1":"1 53189U 22084A   22219.91667824 -.01052165  00000-0 -12414-1 0  9996","FILE":"3531552","COUNTRY_CODE":"US","INCLINATION":"97.6557","OBJECT_NAME":"STARLINK-4391","ARG_OF_PERICENTER":"105.5917","REV_AT_EPOCH":"307","DECAY_DATE":null,"LAUNCH_DATE":"2022-07-22","PERIOD":"92.066","CENTER_NAME":"EARTH","NORAD_CAT_ID":"53189","APOAPSIS":"376.950","OBJECT_TYPE":"PAYLOAD","EPHEMERIS_TYPE":"0","RA_OF_ASC_NODE":"278.8201","SITE":"AFWTR","BSTAR":"-0.01241400000000","ELEMENT_SET_NO":"999","REF_FRAME":"TEME","TLE_LINE2":"2 53189  97.6557 278.8201 0001605 105.5917 263.7284 15.64087517  3071","MEAN_MOTION":"15.64087517","TIME_SYSTEM":"UTC"},{"ELEMENT_SET_NO":"999","EPHEMERIS_TYPE":"0","RA_OF_ASC_NODE":"278.8292","BSTAR":"-0.01400600000000","SITE":"AFWTR","APOAPSIS":"386.012","NORAD_CAT_ID":"53190","OBJECT_TYPE":"PAYLOAD","LAUNCH_DATE":"2022-07-22","CENTER_NAME":"EARTH","PERIOD":"92.252","TIME_SYSTEM":"UTC","MEAN_MOTION":"15.60946502","REF_FRAME":"TEME","TLE_LINE2":"2 53190  97.6556 278.8292 0001609  98.6885 245.1515 15.60946502  1301","EPOCH":"2022-08-07T22:00:00.999936","ECCENTRICITY":"0.00016090","GP_ID":"209797079","MEAN_ANOMALY":"245.1515","MEAN_ELEMENT_THEORY":"SGP4","PERIAPSIS":"383.836","MEAN_MOTION_DDOT":"0.0000000000000","OBJECT_ID":"2022-084B","CLASSIFICATION_TYPE":"U","RCS_SIZE":"LARGE","MEAN_MOTION_DOT":"-0.01066338","SEMIMAJOR_AXIS":"6763.059","DECAY_DATE":null,"REV_AT_EPOCH":"130","ARG_OF_PERICENTER":"98.6885","COUNTRY_CODE":"US","OBJECT_NAME":"STARLINK-4332","INCLINATION":"97.6556","FILE":"3531552","TLE_LINE1":"1 53190U 22084B   22219.91667824 -.01066338  00000-0 -14006-1 0  9994"},{"NORAD_CAT_ID":"53191","APOAPSIS":"386.523","OBJECT_TYPE":"PAYLOAD","LAUNCH_DATE":"2022-07-22","CENTER_NAME":"EARTH","PERIOD":"92.261","ELEMENT_SET_NO":"999","EPHEMERIS_TYPE":"0","RA_OF_ASC_NODE":"278.8436","BSTAR":"-0.01408500000000","SITE":"AFWTR","REF_FRAME":"TEME","TLE_LINE2":"2 53191  97.6556 278.8436 0001704 112.2325 217.9780 15.60792016  1300","TIME_SYSTEM":"UTC","MEAN_MOTION":"15.60792016","MEAN_MOTION_DDOT":"0.0000000000000","OBJECT_ID":"2022-084C","CLASSIFICATION_TYPE":"U","RCS_SIZE":"LARGE","SEMIMAJOR_AXIS":"6763.505","MEAN_MOTION_DOT":"-0.01066050","EPOCH":"2022-08-07T22:00:00.999936","MEAN_ANOMALY":"217.9780","GP_ID":"209796431","ECCENTRICITY":"0.00017040","MEAN_ELEMENT_THEORY":"SGP4","PERIAPSIS":"384.218","FILE":"3531552","TLE_LINE1":"1 53191U 22084C   22219.91667824 -.01066050  00000-0 -14085-1 0  9993","DECAY_DATE":null,"REV_AT_EPOCH":"130","ARG_OF_PERICENTER":"112.2325","OBJECT_NAME":"STARLINK-4369","COUNTRY_CODE":"US","INCLINATION":"97.6556"},{"REF_FRAME":"TEME","TLE_LINE2":"2 53192  97.6556 278.8417 0001680 109.3951 222.0560 15.60806044  1305","MEAN_MOTION":"15.60806044","TIME_SYSTEM":"UTC","NORAD_CAT_ID":"53192","APOAPSIS":"386.466","OBJECT_TYPE":"PAYLOAD","LAUNCH_DATE":"2022-07-22","CENTER_NAME":"EARTH","PERIOD":"92.260","ELEMENT_SET_NO":"999","EPHEMERIS_TYPE":"0","RA_OF_ASC_NODE":"278.8417","SITE":"AFWTR","BSTAR":"-0.01407800000000","TLE_LINE1":"1 53192U 22084D   22219.91667824 -.01066084  00000-0 -14078-1 0  9993","FILE":"3531552","REV_AT_EPOCH":"130","DECAY_DATE":null,"COUNTRY_CODE":"US","OBJECT_NAME":"STARLINK-4375","INCLINATION":"97.6556","ARG_OF_PERICENTER":"109.3951","OBJECT_ID":"2022-084D","MEAN_MOTION_DDOT":"0.0000000000000","CLASSIFICATION_TYPE":"U","RCS_SIZE":"LARGE","SEMIMAJOR_AXIS":"6763.465","MEAN_MOTION_DOT":"-0.01066084","EPOCH":"2022-08-07T22:00:00.999936","GP_ID":"209796581","ECCENTRICITY":"0.00016800","MEAN_ANOMALY":"222.0560","PERIAPSIS":"384.193","MEAN_ELEMENT_THEORY":"SGP4"},{"TLE_LINE2":"2 53193  97.6555 278.8442 0001721 113.8755 215.0940 15.60777993  3071","REF_FRAME":"TEME","MEAN_MOTION":"15.60777993","TIME_SYSTEM":"UTC","OBJECT_TYPE":"PAYLOAD","APOAPSIS":"386.575","NORAD_CAT_ID":"53193","CENTER_NAME":"EARTH","PERIOD":"92.262","LAUNCH_DATE":"2022-07-22","ELEMENT_SET_NO":"999","SITE":"AFWTR","BSTAR":"-0.01409300000000","EPHEMERIS_TYPE":"0","RA_OF_ASC_NODE":"278.8442","TLE_LINE1":"1 53193U 22084E   22219.91667824 -.01066082  00000-0 -14093-1 0  9999","FILE":"3531448","REV_AT_EPOCH":"307","DECAY_DATE":null,"INCLINATION":"97.6555","COUNTRY_CODE":"US","OBJECT_NAME":"STARLINK-4351","ARG_OF_PERICENTER":"113.8755","CLASSIFICATION_TYPE":"U","OBJECT_ID":"2022-084E","MEAN_MOTION_DDOT":"0.0000000000000","MEAN_MOTION_DOT":"-0.01066082","SEMIMAJOR_AXIS":"6763.546","RCS_SIZE":"LARGE","ECCENTRICITY":"0.00017210","GP_ID":"209769740","MEAN_ANOMALY":"215.0940","EPOCH":"2022-08-07T22:00:00.999936","PERIAPSIS":"384.247","MEAN_ELEMENT_THEORY":"SGP4"},{"TLE_LINE2":"2 53194  97.6556 278.8434 0001631  98.6405 230.9495 15.60785027  1308","REF_FRAME":"TEME","MEAN_MOTION":"15.60785027","TIME_SYSTEM":"UTC","OBJECT_TYPE":"PAYLOAD","NORAD_CAT_ID":"53194","APOAPSIS":"386.493","CENTER_NAME":"EARTH","PERIOD":"92.261","LAUNCH_DATE":"2022-07-22","ELEMENT_SET_NO":"999","SITE":"AFWTR","BSTAR":"-0.01408900000000","EPHEMERIS_TYPE":"0","RA_OF_ASC_NODE":"278.8434","TLE_LINE1":"1 53194U 22084F   22219.91667824 -.01066041  00000-0 -14089-1 0  9990","FILE":"3531552","REV_AT_EPOCH":"130","DECAY_DATE":null,"COUNTRY_CODE":"US","INCLINATION":"97.6556","OBJECT_NAME":"STARLINK-4382","ARG_OF_PERICENTER":"98.6405","CLASSIFICATION_TYPE":"U","OBJECT_ID":"2022-084F","MEAN_MOTION_DDOT":"0.0000000000000","MEAN_MOTION_DOT":"-0.01066041","SEMIMAJOR_AXIS":"6763.525","RCS_SIZE":"LARGE","ECCENTRICITY":"0.00016310","GP_ID":"209796953","MEAN_ANOMALY":"230.9495","EPOCH":"2022-08-07T22:00:00.999936","PERIAPSIS":"384.287","MEAN_ELEMENT_THEORY":"SGP4"},{"COUNTRY_CODE":"US","INCLINATION":"97.6556","OBJECT_NAME":"STARLINK-4404","ARG_OF_PERICENTER":"120.4834","REV_AT_EPOCH":"130","DECAY_DATE":null,"TLE_LINE1":"1 53195U 22084G   22219.91667824 -.01066245  00000-0 -14076-1 0  9993","FILE":"3531552","PERIAPSIS":"384.101","MEAN_ELEMENT_THEORY":"SGP4","GP_ID":"209796827","MEAN_ANOMALY":"211.5879","ECCENTRICITY":"0.00017860","EPOCH":"2022-08-07T22:00:00.999936","MEAN_MOTION_DOT":"-0.01066245","SEMIMAJOR_AXIS":"6763.444","RCS_SIZE":"LARGE","CLASSIFICATION_TYPE":"U","OBJECT_ID":"2022-084G","MEAN_MOTION_DDOT":"0.0000000000000","MEAN_MOTION":"15.60813109","TIME_SYSTEM":"UTC","TLE_LINE2":"2 53195  97.6556 278.8410 0001786 120.4834 211.5879 15.60813109  1308","REF_FRAME":"TEME","SITE":"AFWTR","BSTAR":"-0.01407600000000","EPHEMERIS_TYPE":"0","RA_OF_ASC_NODE":"278.8410","ELEMENT_SET_NO":"999","CENTER_NAME":"EARTH","PERIOD":"92.260","LAUNCH_DATE":"2022-07-22","OBJECT_TYPE":"PAYLOAD","NORAD_CAT_ID":"53195","APOAPSIS":"386.517"},{"LAUNCH_DATE":"2022-07-22","CENTER_NAME":"EARTH","PERIOD":"92.260","APOAPSIS":"386.474","NORAD_CAT_ID":"53196","OBJECT_TYPE":"PAYLOAD","RA_OF_ASC_NODE":"278.8426","EPHEMERIS_TYPE":"0","SITE":"AFWTR","BSTAR":"-0.01408100000000","ELEMENT_SET_NO":"999","REF_FRAME":"TEME","TLE_LINE2":"2 53196  97.6556 278.8426 0001662 106.4333 224.3975 15.60799018  1308","MEAN_MOTION":"15.60799018","TIME_SYSTEM":"UTC","RCS_SIZE":"LARGE","SEMIMAJOR_AXIS":"6763.485","MEAN_MOTION_DOT":"-0.01066023","OBJECT_ID":"2022-084H","MEAN_MOTION_DDOT":"0.0000000000000","CLASSIFICATION_TYPE":"U","PERIAPSIS":"384.226","MEAN_ELEMENT_THEORY":"SGP4","EPOCH":"2022-08-07T22:00:00.999936","ECCENTRICITY":"0.00016620","GP_ID":"209796185","MEAN_ANOMALY":"224.3975","TLE_LINE1":"1 53196U 22084H   22219.91667824 -.01066023  00000-0 -14081-1 0  9994","FILE":"3531552","COUNTRY_CODE":"US","OBJECT_NAME":"STARLINK-4407","INCLINATION":"97.6556","ARG_OF_PERICENTER":"106.4333","REV_AT_EPOCH":"130","DECAY_DATE":null},{"FILE":"3531552","TLE_LINE1":"1 53197U 22084J   22219.91667824 -.01066090  00000-0 -14063-1 0  9999","ARG_OF_PERICENTER":"105.5936","INCLINATION":"97.6556","COUNTRY_CODE":"US","OBJECT_NAME":"STARLINK-4403","DECAY_DATE":null,"REV_AT_EPOCH":"130","RCS_SIZE":"LARGE","SEMIMAJOR_AXIS":"6763.383","MEAN_MOTION_DOT":"-0.01066090","MEAN_MOTION_DDOT":"0.0000000000000","OBJECT_ID":"2022-084J","CLASSIFICATION_TYPE":"U","MEAN_ELEMENT_THEORY":"SGP4","PERIAPSIS":"384.131","EPOCH":"2022-08-07T22:00:00.999936","MEAN_ANOMALY":"228.3377","GP_ID":"209796712","ECCENTRICITY":"0.00016520","REF_FRAME":"TEME","TLE_LINE2":"2 53197  97.6556 278.8394 0001652 105.5936 228.3377 15.60834121  1306","TIME_SYSTEM":"UTC","MEAN_MOTION":"15.60834121","LAUNCH_DATE":"2022-07-22","PERIOD":"92.258","CENTER_NAME":"EARTH","APOAPSIS":"386.366","NORAD_CAT_ID":"53197","OBJECT_TYPE":"PAYLOAD","EPHEMERIS_TYPE":"0","RA_OF_ASC_NODE":"278.8394","SITE":"AFWTR","BSTAR":"-0.01406300000000","ELEMENT_SET_NO":"999"},{"MEAN_MOTION_DOT":"-0.01066059","SEMIMAJOR_AXIS":"6763.424","RCS_SIZE":"LARGE","CLASSIFICATION_TYPE":"U","MEAN_MOTION_DDOT":"0.0000000000000","OBJECT_ID":"2022-084K","MEAN_ELEMENT_THEORY":"SGP4","PERIAPSIS":"384.149","GP_ID":"209797080","MEAN_ANOMALY":"222.1567","ECCENTRICITY":"0.00016860","EPOCH":"2022-08-07T22:00:00.999936","FILE":"3531552","TLE_LINE1":"1 53198U 22084K   22219.91667824 -.01066059  00000-0 -14070-1 0  9993","ARG_OF_PERICENTER":"110.5346","COUNTRY_CODE":"US","INCLINATION":"97.6556","OBJECT_NAME":"STARLINK-4385","DECAY_DATE":null,"REV_AT_EPOCH":"130","CENTER_NAME":"EARTH","PERIOD":"92.259","LAUNCH_DATE":"2022-07-22","OBJECT_TYPE":"PAYLOAD","APOAPSIS":"386.429","NORAD_CAT_ID":"53198","BSTAR":"-0.01407000000000","SITE":"AFWTR","EPHEMERIS_TYPE":"0","RA_OF_ASC_NODE":"278.8400","ELEMENT_SET_NO":"999","TLE_LINE2":"2 53198  97.6556 278.8400 0001686 110.5346 222.1567 15.60820073  1307","REF_FRAME":"TEME","TIME_SYSTEM":"UTC","MEAN_MOTION":"15.60820073"}];
